OBJECT_NAME,OBJECT_ID,EPOCH,MEAN_MOTION,ECCENTRICITY,INCLINATION,RA_OF_ASC_NODE,ARG_OF_PERICENTER,MEAN_ANOMALY,EPHEMERIS_TYPE,CLASSIFICATION_TYPE,NORAD_CAT_ID,ELEMENT_SET_NO,REV_AT_EPOCH,BSTAR,MEAN_MOTION_DOT,MEAN_MOTION_DDOT
SL-8 R/B,1985-006B,2026-07-06T02:25:08.192064,14.37842138,.00192214,74.0453,43.2588,287.5683,242.7599,0,U,15483,999,17104,.63728363E-4,.166E-5,0
SL-12 R/B(2),1985-042D,2026-07-06T07:13:23.914272,14.22009558,.00371554,71.1060,197.1331,299.2595,147.9742,0,U,15772,999,13125,.74207057E-4,.117E-5,0
SL-14 R/B,1985-069B,2026-07-05T22:47:16.935648,14.86530735,.00194109,82.5271,273.7212,156.3350,203.8765,0,U,15945,999,19040,.51412229E-4,.481E-5,0
SL-16 R/B,1985-097B,2026-07-06T06:16:34.281696,14.16613754,.00052998,71.0022,250.9213,69.3821,348.0797,0,U,16182,999,10402,-.10056022E-3,-.249E-5,0
SL-14 R/B,1986-006B,2026-07-05T23:03:46.025568,14.86963171,.00748772,82.5275,148.4462,239.9574,119.4201,0,U,16496,999,16678,.54927379E-4,.543E-5,0
COSMOS 1743,1986-034A,2026-07-05T18:48:56.221056,15.68819242,.00050439,82.5283,308.9354,206.5142,153.5863,0,U,16719,999,19870,.58890635E-3,.67791E-3,0
SL-14 R/B,1986-046B,2026-07-05T21:02:09.165408,14.85685630,.00226848,82.4831,328.5146,193.7526,166.3076,0,U,16792,999,14395,.57927893E-4,.529E-5,0
SL-14 R/B,1986-055B,2026-07-06T00:32:46.074336,14.85736204,.0017553,82.5198,15.4216,303.3081,224.5596,0,U,16882,999,13693,.48962116E-4,.45E-5,0
AJISAI (EGS),1986-061A,2026-07-06T06:21:17.476704,12.44516700,.0011118,50.0095,88.7322,229.1139,273.3186,0,U,16908,999,48276,.53691357E-4,-.9E-6,0
SL-14 R/B,1987-024B,2026-07-05T22:25:20.403552,14.86227024,.00171014,82.5290,341.6279,225.8229,134.1583,0,U,17567,999,10569,.52564547E-4,.487E-5,0
COSMOS 1833,1987-027A,2026-07-06T03:36:54.886464,14.13063165,.00236243,70.9211,77.0106,23.4883,336.7312,0,U,17589,999,2705,.1347374E-3,.204E-5,0
SL-16 R/B,1987-027B,2026-07-05T23:47:45.147264,14.17174801,.00070911,71.0031,27.2023,291.8336,68.2033,0,U,17590,999,3210,-.64347044E-4,-.178E-5,0
SL-14 R/B,1987-038B,2026-07-06T01:22:45.673248,14.85457312,.00204493,82.5004,185.2969,130.3765,229.9240,0,U,17912,999,9680,.47143423E-4,.432E-5,0
COSMOS 1844,1987-041A,2026-07-06T06:29:37.146048,14.14575606,.0031878,70.8986,144.0535,207.8653,152.0763,0,U,17973,999,2035,.22624094E-3,.388E-5,0
SL-14 R/B,1987-055B,2026-07-06T05:10:22.974816,14.85723394,.002012,82.4978,237.2915,345.9683,14.0971,0,U,18153,999,8753,.40185994E-4,.374E-5,0
COSMOS 1867,1987-060A,2026-07-05T20:32:33.508032,14.31517830,.00169365,65.0119,335.7746,282.1028,77.8159,0,U,18187,999,3685,.25310891E-4,-.33E-6,0
SL-14 R/B,1988-001B,2026-07-06T05:15:13.969152,14.85623006,.00173463,82.5130,83.8691,201.8276,158.2203,0,U,18749,999,5962,.43638924E-4,.403E-5,0
COSMOS 1933,1988-020A,2026-07-05T22:42:50.243040,15.18844865,.00054693,82.5134,133.8576,130.5071,229.6641,0,U,18958,999,6817,.21803257E-3,.4572E-4,0
SL-3 R/B,1988-032B,2026-07-06T04:35:30.360768,15.20985744,.00255896,97.5269,170.2149,176.3635,183.7791,0,U,19046,999,7011,.19363409E-3,.4257E-4,0
SL-16 R/B,1988-039B,2026-07-06T06:52:37.804224,14.19631901,.0021105,71.0130,177.7719,163.6277,196.5535,0,U,19120,999,97521,.73633185E-4,.108E-5,0
COSMOS 1953,1988-050A,2026-07-06T02:45:11.742336,15.30250262,.00121588,82.5064,38.9426,68.6336,291.6201,0,U,19210,999,5588,.24272755E-3,.715E-4,0
SL-8 R/B,1988-053B,2026-07-06T06:19:11.470944,14.38975330,.00194324,74.0469,253.8942,42.3329,19.3443,0,U,19257,999,99365,.7074214E-4,.192E-5,0
COSMOS 1975,1988-093A,2026-07-05T22:21:14.467680,15.29585740,.00124804,82.5197,358.8423,111.1400,249.1176,0,U,19573,999,3747,.27520214E-3,.794E-4,0
SL-14 R/B,1988-093B,2026-07-06T06:21:23.791680,14.85756212,.00208151,82.5319,290.7349,10.1724,51.3516,0,U,19574,999,1862,.45988383E-4,.425E-5,0
SL-16 R/B,1988-102B,2026-07-06T06:55:18.949728,14.16169389,.00147771,70.9997,261.9483,199.0426,161.0147,0,U,19650,999,94368,-.51715643E-4,-.15E-5,0
INTERCOSMOS 24,1989-080A,2026-07-06T01:51:03.399552,12.59687188,.11876838,82.6047,27.3512,18.1058,345.8810,0,U,20261,999,68170,.17667199E-3,.618E-5,0
SL-14 R/B,1989-080C,2026-07-06T04:51:03.148992,12.50577245,.12284196,82.5942,97.0912,273.8735,72.3117,0,U,20262,999,67496,.43175677E-4,.143E-5,0
DELTA 1 R/B,1989-089B,2026-07-06T02:49:36.780384,14.50743906,.00705137,97.0634,15.6465,108.0137,252.8762,0,U,20323,999,91290,.93888564E-4,.347E-5,0
ARIANE 40 R/B,1990-005H,2026-07-06T03:41:39.265152,14.39937769,.00096513,98.2949,244.1795,201.3645,158.7142,0,U,20443,999,90985,.97039077E-4,.263E-5,0
DELTA 2 R/B(1),1990-008B,2026-07-06T03:14:54.461184,15.72151296,.00629808,35.6001,108.6088,291.5668,67.8370,0,U,20453,999,94468,.72665703E-3,.113443E-2,0
