SL-8 R/B                
1 15483U 85006B   26187.10078926  .00000166  00000+0  63728-4 0  9999
2 15483  74.0453  43.2588 0019221 287.5683 242.7599 14.37842138171042
SL-12 R/B(2)            
1 15772U 85042D   26187.30097123  .00000117  00000+0  74207-4 0  9992
2 15772  71.1060 197.1331 0037155 299.2595 147.9742 14.22009558131258
SL-14 R/B               
1 15945U 85069B   26186.94950157  .00000481  00000+0  51412-4 0  9994
2 15945  82.5271 273.7212 0019410 156.3350 203.8765 14.86530735190400
SL-16 R/B               
1 16182U 85097B   26187.26150789 -.00000249  00000+0 -10056-3 0  9990
2 16182  71.0022 250.9213 0005299  69.3821 348.0797 14.16613754104021
SL-14 R/B               
1 16496U 86006B   26186.96094937  .00000543  00000+0  54927-4 0  9998
2 16496  82.5275 148.4462 0074877 239.9574 119.4201 14.86963171166780
COSMOS 1743             
1 16719U 86034A   26186.78398404  .00067791  00000+0  58891-3 0  9994
2 16719  82.5283 308.9354 0005043 206.5142 153.5863 15.68819242198700
SL-14 R/B               
1 16792U 86046B   26186.87649497  .00000529  00000+0  57928-4 0  9996
2 16792  82.4831 328.5146 0022684 193.7526 166.3076 14.85685630143954
SL-14 R/B               
1 16882U 86055B   26187.02275549  .00000450  00000+0  48962-4 0  9998
2 16882  82.5198  15.4216 0017553 303.3081 224.5596 14.85736204136933
AJISAI (EGS)            
1 16908U 86061A   26187.26478561 -.00000090  00000+0  53691-4 0  9995
2 16908  50.0095  88.7322 0011118 229.1139 273.3186 12.44516700482761
SL-14 R/B               
1 17567U 87024B   26186.93426393  .00000487  00000+0  52565-4 0  9994
2 17567  82.5290 341.6279 0017101 225.8229 134.1583 14.86227024105698
COSMOS 1833             
1 17589U 87027A   26187.15063526  .00000204  00000+0  13474-3 0  9993
2 17589  70.9211  77.0106 0023624  23.4883 336.7312 14.13063165 27057
SL-16 R/B               
1 17590U 87027B   26186.99149476 -.00000178  00000+0 -64347-4 0  9993
2 17590  71.0031  27.2023 0007091 291.8336  68.2033 14.17174801 32103
SL-14 R/B               
1 17912U 87038B   26187.05747307  .00000432  00000+0  47143-4 0  9994
2 17912  82.5004 185.2969 0020449 130.3765 229.9240 14.85457312 96806
COSMOS 1844             
1 17973U 87041A   26187.27056882  .00000388  00000+0  22624-3 0  9996
2 17973  70.8986 144.0535 0031878 207.8653 152.0763 14.14575606 20350
SL-14 R/B               
1 18153U 87055B   26187.21554369  .00000374  00000+0  40186-4 0  9998
2 18153  82.4978 237.2915 0020120 345.9683  14.0971 14.85723394 87531
COSMOS 1867             
1 18187U 87060A   26186.85594338 -.00000033  00000+0  25311-4 0  9996
2 18187  65.0119 335.7746 0016936 282.1028  77.8159 14.31517830 36854
SL-14 R/B               
1 18749U 88001B   26187.21891168  .00000403  00000+0  43639-4 0  9991
2 18749  82.5130  83.8691 0017346 201.8276 158.2203 14.85623006 59620
COSMOS 1933             
1 18958U 88020A   26186.94641485  .00004572  00000+0  21803-3 0  9997
2 18958  82.5134 133.8576 0005469 130.5071 229.6641 15.18844865 68172
SL-3 R/B                
1 19046U 88032B   26187.19132362  .00004257  00000+0  19363-3 0  9994
2 19046  97.5269 170.2149 0025589 176.3635 183.7791 15.20985744 70114
SL-16 R/B               
1 19120U 88039B   26187.28654866  .00000108  00000+0  73633-4 0  9994
2 19120  71.0130 177.7719 0021105 163.6277 196.5535 14.19631901975210
COSMOS 1953             
1 19210U 88050A   26187.11471924  .00007150  00000+0  24273-3 0  9990
2 19210  82.5064  38.9426 0012158  68.6336 291.6201 15.30250262 55884
SL-8 R/B                
1 19257U 88053B   26187.26332721  .00000192  00000+0  70742-4 0  9993
2 19257  74.0469 253.8942 0019432  42.3329  19.3443 14.38975330993650
COSMOS 1975             
1 19573U 88093A   26186.93141745  .00007940  00000+0  27520-3 0  9998
2 19573  82.5197 358.8423 0012480 111.1400 249.1176 15.29585740 37472
SL-14 R/B               
1 19574U 88093B   26187.26485870  .00000425  00000+0  45988-4 0  9996
2 19574  82.5319 290.7349 0020815  10.1724  51.3516 14.85756212 18620
SL-16 R/B               
1 19650U 88102B   26187.28841377 -.00000150  00000+0 -51716-4 0  9995
2 19650  70.9997 261.9483 0014777 199.0426 161.0147 14.16169389943682
INTERCOSMOS 24          
1 20261U 89080A   26187.07712268  .00000618  00000+0  17667-3 0  9997
2 20261  82.6047  27.3512 1187683  18.1058 345.8810 12.59687188681703
SL-14 R/B               
1 20262U 89080C   26187.20211978  .00000143  00000+0  43176-4 0  9993
2 20262  82.5942  97.0912 1228419 273.8735  72.3117 12.50577245674965
DELTA 1 R/B             
1 20323U 89089B   26187.11778681  .00000347  00000+0  93889-4 0  9991
2 20323  97.0634  15.6465 0070513 108.0137 252.8762 14.50743906912906
ARIANE 40 R/B           
1 20443U 90005H   26187.15392668  .00000263  00000+0  97039-4 0  9993
2 20443  98.2949 244.1795 0009651 201.3645 158.7142 14.39937769909857
DELTA 2 R/B(1)          
1 20453U 90008B   26187.13535256  .00113443  00000+0  72666-3 0  9990
2 20453  35.6001 108.6088 0062980 291.5668  67.8370 15.72151296944685
